FLOCK 4G-1              
1 62666U 25009BK  26068.75951132  .00013534  00000+0  50654-3 0  9995
2 62666  97.4059 151.3158 0003180 323.1401  36.9619 15.27421081 63725
STARLINK-34158          
1 63996U 25101C   26068.14442162  .00031986  00000+0  11660-2 0  9990
2 63996  43.0035   0.9277 0001360 284.6533  75.4168 15.27603972 46975
